CALSPHERE 1             
1 00900U 64063C   25009.89296725  .00000966  00000+0  98808-3 0  9998
2 00900  90.2090  59.8649 0027333  79.0263 331.4307 13.75736827999442
CALSPHERE 2             
1 00902U 64063E   25009.16760729  .00000050  00000+0  62138-4 0  9992
2 00902  90.2243  63.6007 0016938 312.8486 113.1670 13.52842066785415
LCS 1                   
1 01361U 65034C   25009.29837725  .00000014  00000+0  73314-3 0  9993
2 01361  32.1465 340.9248 0010070  64.3760 295.7777  9.89307322158009
TEMPSAT 1               
1 01512U 65065E   25009.79003184  .00000068  00000+0  11950-3 0  9991
2 01512  89.9638 213.3307 0067898 278.7099  92.6867 13.33550361890299
CALSPHERE 4A            
1 01520U 65065H   25009.81288413  .00000144  00000+0  25747-3 0  9997
2 01520  89.9354 126.8379 0070779 139.8391 341.4782 13.36155174892811
OPS 5712 (P/L 160)      
1 02826U 67053A   25009.87494395  .00009274  00000+0  16843-2 0  9999
2 02826  69.9208 230.4414 0000711 229.0460 131.0620 14.66435713989182
LES-5                   
1 02866U 67066E   25009.18076066 -.00000055  00000+0  00000+0 0  9996
2 02866   1.4525 118.8942 0057217 179.2418 251.6888  1.09425268125292
SURCAL 159              
1 02872U 67053F   25010.12574172  .00000180  00000+0  16020-3 0  9997
2 02872  69.9744  46.9863 0003449  67.3364 292.8108 13.99391357937442
OPS 5712 (P/L 153)      
1 02874U 67053H   25009.13733075  .00000140  00000+0  13903-3 0  9990
2 02874  69.9731 158.4577 0006837 180.5323 179.5776 13.96698741933608
SURCAL 150B             
1 02909U 67053J   25010.16793315  .00047005  00000+0  36825-2 0  9995
2 02909  69.9303 154.0331 0002925 341.4713  18.6340 15.00742829  2350
OPS 3811 (DSP 2)        
1 05204U 71039A   25009.12341135  .00000023  00000+0  00000+0 0  9990
2 05204   1.1247 284.3114 0024036 358.7830 304.1787  0.98158244201082
RIGIDSPHERE 2 (LCS 4)   
1 05398U 71067E   25009.89265560  .00001918  00000+0  63073-3 0  9993
2 05398  87.6238 124.1062 0061434 166.3876 193.8997 14.36752700798715